{"fetched_at":"2026-03-29T16:36:15Z","count":15609,"tles":[{"name":"STARLINK-30873","line1":"1 58249U 23171V   26087.69106201  .00003914  00000+0  15554-3 0  9999","line2":"2 58249  43.0019 177.6449 0001254 261.6667  98.4042 15.26734745132648","category":"Starlink"}]}