{
  "norad_id": 58249,
  "name": "STARLINK-30873",
  "history": [
    {
      "epoch": "2026-03-28T16:35:07.757664Z",
      "apogee_km": 486.4420401328962,
      "perigee_km": 484.7204823186148,
      "latitude_deg": -9.901519335253842e-06,
      "longitude_deg": 102.75468819781511,
      "height_km": 485.48286206478053,
      "semi_major_axis_km": 6863.718261225755,
      "eccentricity": 0.00012541,
      "inclination_deg": 43.0019,
      "raan_deg": 177.6449,
      "arg_perigee_deg": 261.6667,
      "mean_anomaly_deg": 98.4042,
      "mean_motion_rev_day": 15.26734745
    }
  ]
}